{
  "norad_id": 64350,
  "name": "STARLINK-34425",
  "history": [
    {
      "epoch": "2026-03-28T20:54:19.647072",
      "apogee_km": 573.7871995080122,
      "perigee_km": 570.265690693649,
      "latitude_deg": -69.8273207679095,
      "longitude_deg": -21.378169919829816,
      "semi_major_axis_km": 6950.16344510083,
      "eccentricity": 0.00025334,
      "inclination_deg": 70.0023,
      "raan_deg": 346.1517,
      "arg_perigee_deg": 274.2444,
      "mean_anomaly_deg": 85.8425,
      "mean_motion_rev_day": 14.98339522
    },
    {
      "epoch": "2026-03-29T03:18:51.730272",
      "apogee_km": 573.9141610247189,
      "perigee_km": 570.1193770668197,
      "latitude_deg": 25.252467616256276,
      "longitude_deg": 4.257478079991415,
      "semi_major_axis_km": 6950.153769045769,
      "eccentricity": 0.000273,
      "inclination_deg": 70.0019,
      "raan_deg": 345.478,
      "arg_perigee_deg": 268.0624,
      "mean_anomaly_deg": 92.0223,
      "mean_motion_rev_day": 14.98342651
    }
  ]
}